COSMOS 2251 DEB         
1 34886U 93036ACZ 17342.15065211  .00000782  00000-0  11148-3 0  9993
2 34886  73.9741 253.8591 0104998  71.4914 289.7633 14.74977225195632
